{"type": "FeatureCollection", "features": [ {"type": "Feature", "properties": {"norad_id": 43010, "name": "FENGYUN 3D", "group": "weather", "lat": 66.30883003388597, "lon": -68.22823001793677, "alt_km": 820.190401768592, "timestamp": "2025-12-12T14:39:17.618819+00:00", "meta": {"OBJECT_NAME": "FENGYUN 3D", "OBJECT_ID": "2017-072A", "EPOCH": "2025-12-12T07:34:11.684928", "MEAN_MOTION": 14.19685104, "ECCENTRICITY": 9.213e-05, "INCLINATION": 98.9895, "RA_OF_ASC_NODE": 312.6192, "ARG_OF_PERICENTER": 183.6817, "MEAN_ANOMALY": 176.4352, "EPHEMERIS_TYPE": 0, "CLASSIFICATION_TYPE": "U", "NORAD_CAT_ID": 43010, "ELEMENT_SET_NO": 999, "REV_AT_EPOCH": 41847, "BSTAR": 0.00027986419, "MEAN_MOTION_DOT": 5.46e-06, "MEAN_MOTION_DDOT": 0}, "tle": {"line1": "1 43010U 17072A   25346.31541302  .00000546  00000+0  27986-3 0  9993", "line2": "2 43010  98.9895 312.6192 0000921 183.6817 176.4352 14.19685104418479"}}, "geometry": {"type": "Point", "coordinates": [-68.22823001793677, 66.30883003388597]}}, {"type": "Feature", "properties": {"norad_id": 43013, "name": "NOAA 20 (JPSS-1)", "group": "weather", "lat": -39.99273940241202, "lon": 95.47687634800349, "alt_km": 834.4928814751156, "timestamp": "2025-12-12T14:39:17.618828+00:00", "meta": {"OBJECT_NAME": "NOAA 20 (JPSS-1)", "OBJECT_ID": "2017-073A", "EPOCH": "2025-12-12T06:51:10.908288", "MEAN_MOTION": 14.19525553, "ECCENTRICITY": 0.00021615, "INCLINATION": 98.7598, "RA_OF_ASC_NODE": 282.5872, "ARG_OF_PERICENTER": 87.7885, "MEAN_ANOMALY": 272.3538, "EPHEMERIS_TYPE": 0, "CLASSIFICATION_TYPE": "U", "NORAD_CAT_ID": 43013, "ELEMENT_SET_NO": 999, "REV_AT_EPOCH": 41795, "BSTAR": 0.00010155491, "MEAN_MOTION_DOT": 1.7e-06, "MEAN_MOTION_DDOT": 0}, "tle": {"line1": "1 43013U 17073A   25346.28554292  .00000170  00000+0  10155-3 0  9998", "line2": "2 43013  98.7598 282.5872 0002161  87.7885 272.3538 14.19525553417952"}}, "geometry": {"type": "Point", "coordinates": [95.47687634800349, -39.99273940241202]}}, {"type": "Feature", "properties": {"norad_id": 43226, "name": "GOES 17", "group": "weather", "lat": 0.3704959737459677, "lon": -148.15485822588425, "alt_km": 35780.0993789154, "timestamp": "2025-12-12T14:39:17.618840+00:00", "meta": {"OBJECT_NAME": "GOES 17", "OBJECT_ID": "2018-022A", "EPOCH": "2025-12-11T23:21:28.018944", "MEAN_MOTION": 1.00271668, "ECCENTRICITY": 0.0003289, "INCLINATION": 0.4581, "RA_OF_ASC_NODE": 89.1115, "ARG_OF_PERICENTER": 187.3128, "MEAN_ANOMALY": 65.3748, "EPHEMERIS_TYPE": 0, "CLASSIFICATION_TYPE": "U", "NORAD_CAT_ID": 43226, "ELEMENT_SET_NO": 999, "REV_AT_EPOCH": 2854, "BSTAR": 0, "MEAN_MOTION_DOT": -1.74e-06, "MEAN_MOTION_DDOT": 0}, "tle": {"line1": "1 43226U 18022A   25345.97324096 -.00000174  00000+0  00000+0 0  9990", "line2": "2 43226   0.4581  89.1115 0003289 187.3128  65.3748  1.00271668 28547"}}, "geometry": {"type": "Point", "coordinates": [-148.15485822588425, 0.3704959737459677]}}, {"type": "Feature", "properties": {"norad_id": 43491, "name": "FENGYUN 2H", "group": "weather", "lat": -2.2092878068971897, "lon": 20.78159142154567, "alt_km": 35794.857443810695, "timestamp": "2025-12-12T14:39:17.618859+00:00", "meta": {"OBJECT_NAME": "FENGYUN 2H", "OBJECT_ID": "2018-050A", "EPOCH": "2025-12-12T01:52:23.750688", "MEAN_MOTION": 1.00271159, "ECCENTRICITY": 0.00028701, "INCLINATION": 2.5495, "RA_OF_ASC_NODE": 81.3354, "ARG_OF_PERICENTER": 166.252, "MEAN_ANOMALY": 300.9008, "EPHEMERIS_TYPE": 0, "CLASSIFICATION_TYPE": "U", "NORAD_CAT_ID": 43491, "ELEMENT_SET_NO": 999, "REV_AT_EPOCH": 2756, "BSTAR": 0, "MEAN_MOTION_DOT": -1.21e-06, "MEAN_MOTION_DDOT": 0}, "tle": {"line1": "1 43491U 18050A   25346.07805267 -.00000121  00000+0  00000+0 0  9993", "line2": "2 43491   2.5495  81.3354 0002870 166.2520 300.9008  1.00271159 27567"}}, "geometry": {"type": "Point", "coordinates": [20.78159142154567, -2.2092878068971897]}}, {"type": "Feature", "properties": {"norad_id": 43689, "name": "METOP-C", "group": "weather", "lat": 0.4207227458703781, "lon": 44.317927089686755, "alt_km": 822.4844651644489, "timestamp": "2025-12-12T14:39:17.618868+00:00", "meta": {"OBJECT_NAME": "METOP-C", "OBJECT_ID": "2018-087A", "EPOCH": "2025-12-12T06:12:22.502592", "MEAN_MOTION": 14.21484249, "ECCENTRICITY": 0.00012588, "INCLINATION": 98.6932, "RA_OF_ASC_NODE": 44.0357, "ARG_OF_PERICENTER": 39.5257, "MEAN_ANOMALY": 320.6012, "EPHEMERIS_TYPE": 0, "CLASSIFICATION_TYPE": "U", "NORAD_CAT_ID": 43689, "ELEMENT_SET_NO": 999, "REV_AT_EPOCH": 36827, "BSTAR": 0.00016561946, "MEAN_MOTION_DOT": 3.19e-06, "MEAN_MOTION_DDOT": 0}, "tle": {"line1": "1 43689U 18087A   25346.25859378  .00000319  00000+0  16562-3 0  9996", "line2": "2 43689  98.6932  44.0357 0001258  39.5257 320.6012 14.21484249368278"}}, "geometry": {"type": "Point", "coordinates": [44.317927089686755, 0.4207227458703781]}}, {"type": "Feature", "properties": {"norad_id": 43823, "name": "GEO-KOMPSAT-2A", "group": "weather", "lat": -0.018715935292100073, "lon": 69.63296455701602, "alt_km": 35784.74901251639, "timestamp": "2025-12-12T14:39:17.618878+00:00", "meta": {"OBJECT_NAME": "GEO-KOMPSAT-2A", "OBJECT_ID": "2018-100A", "EPOCH": "2025-12-12T00:23:29.579712", "MEAN_MOTION": 1.00274151, "ECCENTRICITY": 4.238e-05, "INCLINATION": 0.043, "RA_OF_ASC_NODE": 144.5078, "ARG_OF_PERICENTER": 350.0499, "MEAN_ANOMALY": 80.5448, "EPHEMERIS_TYPE": 0, "CLASSIFICATION_TYPE": "U", "NORAD_CAT_ID": 43823, "ELEMENT_SET_NO": 999, "REV_AT_EPOCH": 2575, "BSTAR": 0, "MEAN_MOTION_DOT": -3.34e-06, "MEAN_MOTION_DDOT": 0}, "tle": {"line1": "1 43823U 18100A   25346.01631458 -.00000334  00000+0  00000+0 0  9997", "line2": "2 43823   0.0430 144.5078 0000423 350.0499  80.5448  1.00274151 25756"}}, "geometry": {"type": "Point", "coordinates": [69.63296455701602, -0.018715935292100073]}}, {"type": "Feature", "properties": {"norad_id": 44387, "name": "METEOR-M2 2", "group": "weather", "lat": 71.10974391560157, "lon": -60.90732320995947, "alt_km": 803.7311769889448, "timestamp": "2025-12-12T14:39:17.618888+00:00", "meta": {"OBJECT_NAME": "METEOR-M2 2", "OBJECT_ID": "2019-038A", "EPOCH": "2025-12-12T05:52:55.668000", "MEAN_MOTION": 14.24290477, "ECCENTRICITY": 0.00012252, "INCLINATION": 98.8975, "RA_OF_ASC_NODE": 325.9676, "ARG_OF_PERICENTER": 148.1559, "MEAN_ANOMALY": 211.9693, "EPHEMERIS_TYPE": 0, "CLASSIFICATION_TYPE": "U", "NORAD_CAT_ID": 44387, "ELEMENT_SET_NO": 999, "REV_AT_EPOCH": 33468, "BSTAR": 5.013485e-05, "MEAN_MOTION_DOT": 7e-07, "MEAN_MOTION_DDOT": 0}, "tle": {"line1": "1 44387U 19038A   25346.24508875  .00000070  00000+0  50135-4 0  9990", "line2": "2 44387  98.8975 325.9676 0001225 148.1559 211.9693 14.24290477334680"}}, "geometry": {"type": "Point", "coordinates": [-60.90732320995947, 71.10974391560157]}}, {"type": "Feature", "properties": {"norad_id": 47719, "name": "ARKTIKA-M 1", "group": "weather", "lat": 33.890857228018746, "lon": 103.89416301061208, "alt_km": 17275.454755402752, "timestamp": "2025-12-12T14:39:17.618901+00:00", "meta": {"OBJECT_NAME": "ARKTIKA-M 1", "OBJECT_ID": "2021-016A", "EPOCH": "2025-12-09T14:03:23.859648", "MEAN_MOTION": 2.00631311, "ECCENTRICITY": 0.7202538, "INCLINATION": 63.1769, "RA_OF_ASC_NODE": 84.4506, "ARG_OF_PERICENTER": 269.1116, "MEAN_ANOMALY": 15.6235, "EPHEMERIS_TYPE": 0, "CLASSIFICATION_TYPE": "U", "NORAD_CAT_ID": 47719, "ELEMENT_SET_NO": 999, "REV_AT_EPOCH": 3498, "BSTAR": 0, "MEAN_MOTION_DOT": -6.1e-07, "MEAN_MOTION_DDOT": 0}, "tle": {"line1": "1 47719U 21016A   25343.58569282 -.00000061  00000+0  00000+0 0  9996", "line2": "2 47719  63.1769  84.4506 7202538 269.1116  15.6235  2.00631311 34985"}}, "geometry": {"type": "Point", "coordinates": [103.89416301061208, 33.890857228018746]}}, {"type": "Feature", "properties": {"norad_id": 49008, "name": "FENGYUN 3E", "group": "weather", "lat": 34.11306939294495, "lon": -18.85381411504121, "alt_km": 823.7490866960452, "timestamp": "2025-12-12T14:39:17.618912+00:00", "meta": {"OBJECT_NAME": "FENGYUN 3E", "OBJECT_ID": "2021-062A", "EPOCH": "2025-12-12T07:43:39.565344", "MEAN_MOTION": 14.19879887, "ECCENTRICITY": 5.68e-05, "INCLINATION": 98.748, "RA_OF_ASC_NODE": 346.8479, "ARG_OF_PERICENTER": 270.8945, "MEAN_ANOMALY": 89.2167, "EPHEMERIS_TYPE": 0, "CLASSIFICATION_TYPE": "U", "NORAD_CAT_ID": 49008, "ELEMENT_SET_NO": 999, "REV_AT_EPOCH": 23006, "BSTAR": 2.0320008e-05, "MEAN_MOTION_DOT": -1e-08, "MEAN_MOTION_DDOT": 0}, "tle": {"line1": "1 49008U 21062A   25346.32198571 -.00000001  00000+0  20320-4 0  9990", "line2": "2 49008  98.7480 346.8479 0000568 270.8945  89.2167 14.19879887230060"}}, "geometry": {"type": "Point", "coordinates": [-18.85381411504121, 34.11306939294495]}}, {"type": "Feature", "properties": {"norad_id": 51850, "name": "GOES 18", "group": "weather", "lat": 0.0017954500716620165, "lon": 164.36945193557406, "alt_km": 35788.30396202194, "timestamp": "2025-12-12T14:39:17.618922+00:00", "meta": {"OBJECT_NAME": "GOES 18", "OBJECT_ID": "2022-021A", "EPOCH": "2025-12-12T05:58:54.245280", "MEAN_MOTION": 1.00272483, "ECCENTRICITY": 6.83e-05, "INCLINATION": 0.0034, "RA_OF_ASC_NODE": 50.7117, "ARG_OF_PERICENTER": 262.3869, "MEAN_ANOMALY": 80.8263, "EPHEMERIS_TYPE": 0, "CLASSIFICATION_TYPE": "U", "NORAD_CAT_ID": 51850, "ELEMENT_SET_NO": 999, "REV_AT_EPOCH": 471, "BSTAR": 0, "MEAN_MOTION_DOT": 1.06e-06, "MEAN_MOTION_DDOT": 0}, "tle": {"line1": "1 51850U 22021A   25346.24923895  .00000106  00000+0  00000+0 0  9993", "line2": "2 51850   0.0034  50.7117 0000683 262.3869  80.8263  1.00272483  4718"}}, "geometry": {"type": "Point", "coordinates": [164.36945193557406, 0.0017954500716620165]}}]}